parkid	parkname	begDate	endDate	active	n_games	lat	lng	allteams	allnames	streetaddr	extaddr	city	state	country	zip	tel	url	url_spanish	logofile	comments
BOS09	Proposed Boston Red Sox Park	0000-00-00	0000-00-00	0	0	NULL	NULL	BOS	Proposed Boston Red Sox Park			Boston	MA	US	02215					Proposed (but not currently planned) Boston Red Sox Park: All info suspect
MIN04	Proposed Minnesota Twins Park	0000-00-00	0000-00-00	0	0	NULL	NULL		Proposed Minnesota Twins Park			Minneapolis	MN	US						Proposed Minnesota Twins Park
NYC19	Proposed New York Yankees Park	0000-00-00	0000-00-00	0	0	NULL	NULL		Proposed New York Yankees Park			New York	NY	US						Proposed New York Yankees Park
OAK02	Proposed Oakland Athletics Stadium	0000-00-00	0000-00-00	0	0	NULL	NULL		Proposed Oakland Athletics Stadium			Oakland	CA	US						Proposed Oakland Athletics Stadium
FOR01	Grand Duchess	1871-05-04	1871-08-29	0	9	NULL	NULL	FW1 (1871-1871)	Grand Duchess (1871-1871); Hamilton Field			Fort Wayne	IN	US						First ML game
WAS01	Olympic Grounds	1871-05-05	1875-06-08	0	47	NULL	NULL	WS6 (1875-1875); WS3 (1871-1872); WS5 (1873-1873) [alt]; BL1 (1873-1873) [alt]	Olympic Grounds (1871-1875); Olympics Grounds			Washington	DC	US						WS5 played 1 games here as an alternate (neutral) site from 1873-05-14 until 1873-05-14 | BL1 played 1 games here as an alternate (neutral) site from 1873-05-14 until
RCK01	Agricultural Society Fair Grounds	1871-05-06	1871-08-03	0	6	NULL	NULL	RC1 (1871-1871)	Agricultural Society Fair Grounds (1871-1871)			Rockford	IL	US						
CHI01	Lake Front Park I	1871-05-08	1871-09-29	0	17	NULL	NULL	CH1 (1871-1871); RC1 (1871-1871) [alt]	Lake Front Park I (1871-1871); Union Base-Ball Grounds; Lake Park			Chicago	IL	US						RC1 played 1 games here as an alternate (neutral) site from 1871-08-08 until 1871-08-08
TRO01	Haymakers' Grounds	1871-05-09	1881-09-30	0	108	NULL	NULL	TRO (1871-1872); TRN (1880-1881)	Haymakers' Grounds (1871-1881)			Troy	NY	US						
CLE01	National Association Grounds	1871-05-11	1872-08-19	0	14	NULL	NULL	CL1 (1871-1872)	National Association Grounds (1871-1872)			Cleveland	OH	US						
CIN01	Lincoln Park Grounds	1871-05-13	1871-07-22	0	3	NULL	NULL	WS3 (1871-1871) [alt]; CL1 (1871-1871) [alt]	Lincoln Park Grounds (1871-1871); Union Cricket Club Grounds			Cincinnati	OH	US						WS3 played 1 games here as an alternate (neutral) site from 1871-07-04 until 1871-07-04 | CL1 played 2 games here as an alternate (neutral) site from 1871-05-13 until
BOS01	South End Grounds I	1871-05-16	1887-09-10	0	688	42.3391	-71.0842	BSN (1876-1887); BS1 (1871-1875); HR1 (1874-1874) [alt]	South End Grounds I (1871-1887); Walpole Street Grounds			Boston	MA	US						HR1 played 1 games here as an alternate (neutral) site from 1874-08-12 until 1874-08-12
NYC01	Union Grounds (Brooklyn)	1871-05-25	1878-07-26	0	313	40.7034	-73.9536	NY3 (1876-1876); NY2 (1871-1875); BR2 (1873-1875); BR1 (1872-1872); PRO (1878-1878) [alt]; HAR (1877-1877) [alt]; ELI (1873-1873) [alt]; CH1 (1871-1871) [alt]; BS1 (1871-1871) [alt]	Union Grounds (Brooklyn) (1871-1878); Union Grounds (1871-1878)			Brooklyn	NY	US						PRO played 1 games here as an alternate (neutral) site from 1878-07-26 until 1878-07-26 | HAR played 28 games here as an alternate (neutral) site from 1877-04-30 unti
PHI01	Jefferson Street Grounds	1871-06-03	1891-10-05	0	814	NULL	NULL	PHN (1876-1876); PH4 (1883-1891); PH2 (1873-1875); PH1 (1871-1875)	Jefferson Street Grounds (1871-1891); Athletics Park; Athletic Park			Philadelphia	PA	US						
BAL01	Madison Avenue Grounds	1871-07-08	1873-04-14	0	2	NULL	NULL	BL4 (1873-1873); WS3 (1871-1871) [alt]	Madison Avenue Grounds (1871-1873); Newington Park			Baltimore	MD	US						WS3 played 1 games here as an alternate (neutral) site from 1871-07-08 until 1871-07-08
WAS02	National Grounds	1872-04-20	1872-05-25	0	7	NULL	NULL	WS4 (1872-1872)	National Grounds (1872-1872); Nationals Grounds			Washington	DC	US						
BAL02	Newington Park	1872-04-22	1882-09-30	0	109	NULL	NULL	BL2 (1882-1882); BL1 (1872-1874); WS6 (1875-1875) [alt]	Newington Park (1872-1882)			Baltimore	MD	US						WS6 played 1 games here as an alternate (neutral) site from 1875-06-09 until 1875-06-09
MID01	Mansfield Club Grounds	1872-05-02	1872-07-27	0	7	NULL	NULL	MID (1872-1872)	Mansfield Club Grounds (1872-1872)			Middletown	CT	US						
NYC02	Capitoline Grounds	1872-05-06	1872-10-31	0	18	NULL	NULL	BR2 (1872-1872)	Capitoline Grounds (1872-1872)			Brooklyn	NY	US						
CHI02	23rd Street Park	1872-05-29	1877-10-06	0	129	41.853	-87.6266	CHN (1876-1877); CH2 (1874-1875); TRO (1872-1872) [alt]; PH2 (1873-1873) [alt]; CL1 (1872-1872) [alt]; BS1 (1873-1873) [alt]	23rd Street Park (1872-1877); 23rd Street Grounds			Chicago	IL	US						TRO played 4 games here as an alternate (neutral) site from 1872-06-17 until 1872-07-04 | PH2 played 1 games here as an alternate (neutral) site from 1873-08-19 until
HRT02	Hartford Trotting Park	1872-06-21	1872-08-09	0	3	NULL	NULL	MID (1872-1872) [alt]	Hartford Trotting Park (1872-1872)			Hartford	CT	US						MID played 3 games here as an alternate (neutral) site from 1872-06-21 until 1872-08-09
SPR01	Hampden Park Race Track	1872-07-23	1875-05-14	0	3	NULL	NULL	MID (1872-1872) [alt]; BS1 (1873-1875) [alt]	Hampden Park Race Track (1872-1875); Springfield Track			Springfield	MA	US						TRO:7/23/1872 | MID played 1 games here as an alternate (neutral) site from 1872-07-23 until 1872-07-23 | BS1 played 2 games here as an alternate (neutral) site from 
WAV01	Waverly Fairgrounds	1873-04-28	1873-07-23	0	7	40.7031	-74.1974	ELI (1873-1873)	Waverly Fairgrounds (1873-1873)			Newark	NJ	US	3658					
HOB01	Elysian Field	1873-07-04	1873-07-04	0	1	40.7499	-74.0268	NY2 (1873-1873) [alt]	Elysian Field (1873-1873)			Hoboken	NJ	US						NY2 played 1 games here as an alternate (neutral) site from 1873-07-04 until 1873-07-04
HRT01	Hartford Ball Club Grounds	1874-05-01	1876-09-16	0	99	41.7636	-72.6856	HR1 (1874-1875); HAR (1876-1876)	Hartford Ball Club Grounds (1874-1876)			Hartford	CT	US						
WOR01	Agricultural County Fair Grounds I	1874-10-30	1882-09-29	0	127	NULL	NULL	WOR (1880-1882); BS1 (1874-1874) [alt]	Agricultural County Fair Grounds I (1880-1882); Worcester Driving Park Grounds			Worcester	MA	US						BS1 played 1 games here as an alternate (neutral) site from 1874-10-30 until 1874-10-30
NEW01	Howard Avenue Grounds	1875-04-21	1877-09-22	0	28	NULL	NULL	NH1 (1875-1875); HAR (1877-1877) [alt]	Howard Avenue Grounds (1875-1877); Hamilton Park; Brewster Park			New Haven	CT	US						HAR played 1 games here as an alternate (neutral) site from 1877-09-22 until 1877-09-22
PHI02	Centennial Park	1875-04-21	1875-06-04	0	8	NULL	NULL	PH3 (1875-1875); PH1 (1875-1875)	Centennial Park (1875-1875); Centennial Grounds			Philadelphia	PA	US						
RIC01	Richmond Fair Grounds	1875-04-29	1875-05-01	0	2	NULL	NULL	WS6 (1875-1875) [alt]	Richmond Fair Grounds (1875-1875)			Richmond	VA	US						WS6 played 2 games here as an alternate (neutral) site from 1875-04-29 until 1875-05-01
KEO01	Perry Park	1875-05-04	1875-06-14	0	8	NULL	NULL	KEO (1875-1875)	Perry Park (1875-1875); Walte's Pasture			Keokuk	IA	US						
STL01	Red Stockings Base-Ball Park	1875-05-04	1875-07-04	0	14	NULL	NULL	SL1 (1875-1875)	Red Stockings Base-Ball Park (1875-1875); Red Stocking Baseball Park; Red Stocking Base Ball Park			Saint Louis	MO	US						
STL02	Grand Avenue Park	1875-05-06	1878-07-13	0	97	NULL	NULL	SL3 (1876-1877); SL2 (1875-1875); IN1 (1878-1878) [alt]	Grand Avenue Park (1875-1878); Sportsman's Park I			Saint Louis	MO	US						IN1 played 3 games here as an alternate (neutral) site from 1878-07-09 until 1878-07-13
PRO01	Adelaide Avenue Grounds	1875-06-12	1875-06-22	0	2	NULL	NULL	HR1 (1875-1875) [alt]; BS1 (1875-1875) [alt]	Adelaide Avenue Grounds (1875-1875)			Providence	RI	US						HR1 played 1 games here as an alternate (neutral) site from 1875-06-12 until 1875-06-12 | BS1 played 1 games here as an alternate (neutral) site from 1875-06-22 until
DOV01	Fairview Park Fair Grounds	1875-06-24	1875-06-24	0	1	NULL	NULL	PH1 (1875-1875) [alt]	Fairview Park Fair Grounds (1875-1875)			Dover	DE	US						PH1 played 1 games here as an alternate (neutral) site from 1875-06-24 until 1875-06-24
COV01	Star Baseball Park	1875-09-21	1875-09-21	0	1	NULL	NULL	PH2 (1875-1875) [alt]	Star Baseball Park (1875-1875)			Covington	KY	US						PH2 played 1 games here as an alternate (neutral) site from 1875-09-21 until 1875-09-21
LUD01	Ludlow Baseball Park	1875-09-22	1875-09-22	0	1	NULL	NULL	PH2 (1875-1875) [alt]	Ludlow Baseball Park (1875-1875)			Covington	KY	US	41016					PH2 played 1 games here as an alternate (neutral) site from 1875-09-22 until 1875-09-22
CIN02	Avenue Grounds	1876-04-25	1879-08-27	0	131	39.1618	-84.46	CN1 (1876-1879)	Avenue Grounds (1876-1879)			Cincinnati	OH	US						First Ladies Day (1876)
LOU01	Louisville Baseball Park	1876-04-25	1877-09-29	0	63	38.2274	-85.763	LS1 (1876-1877)	Louisville Baseball Park (1876-1877)			Louisville	KY	US						
IND01	South Street Park	1878-05-01	1878-09-13	0	22	39.7615	-86.15	IN1 (1878-1878)	South Street Park (1878-1878)			Indianapolis	IN	US						
PRO02	Messer Street Grounds	1878-05-01	1885-09-09	0	357	41.8122	-71.4356	PRO (1878-1885)	Messer Street Grounds (1878-1885)			Providence	RI	US						
CHI03	Lake Front Park II	1878-05-14	1882-09-30	0	208	41.8836	-87.6239	CHN (1878-1882)	Lake Front Park II (1878-1882); Lake Front Park I			Chicago	IL	US						
MIL01	Milwaukee Base-Ball Grounds	1878-05-14	1878-09-14	0	25	43.0589	-87.9314	ML2 (1878-1878)	Milwaukee Base-Ball Grounds (1878-1878); Eclipse Park II			Milwaukee	WI	US						
PIT01	Union Park	1878-08-22	1878-08-24	0	3	NULL	NULL	IN1 (1878-1878) [alt]	Union Park (1878-1878)			Pittsburgh	PA	US						PRO: 3 games | IN1 played 3 games here as an alternate (neutral) site from 1878-08-22 until 1878-08-24
BUF01	Riverside Grounds	1879-05-01	1883-09-08	0	213	42.9075	-78.8927	BFN (1879-1883)	Riverside Grounds (1879-1883); Riverside Park			Buffalo	NY	US						
CLE02	League Park I	1879-05-01	1884-10-11	0	274	NULL	NULL	CL2 (1879-1884)	League Park I (1879-1884); League Park (Cleveland) I (1879-1884); National League Park I; Kennard Street Park			Cleveland	OH	US						
SYR01	Star Park I	1879-05-28	1879-09-10	0	34	43.048	-76.1483	SR1 (1879-1879)	Star Park I (1879-1879); Newell Park			Syracuse	NY	US						
TRO02	Putnam Grounds	1879-05-28	1882-05-30	0	42	NULL	NULL	TRN (1879-1882) [alt]	Putnam Grounds (1879-1882)			Troy	NY	US						TRN played 1 games here as an alternate (neutral) site from 1882-05-30 until 1882-05-30
SYR04	Lakeside Park	1879-05-31	1879-08-09	0	NULL	NULL	NULL		Lakeside Park			Syracuse	NY	US						stadium only found in old parkcodes.txt, data suspect | SR1: Sundays
CIN03	Bank Street Grounds	1880-05-01	1884-10-15	0	184	39.1176	-84.5364	CNU (1884-1884); CN2 (1882-1883); CN1 (1880-1880)	Bank Street Grounds (1880-1884)			Cincinnati	OH	US						
ALB01	Riverside Park	1880-09-11	1882-05-18	0	6	NULL	NULL	TRN (1880-1882) [alt]	Riverside Park (1880-1882)			Albany	NY	US						TRN played 6 games here as an alternate (neutral) site from 1880-09-11 until 1882-05-18
DET01	Recreation Park (Detroit)	1881-05-02	1888-09-22	0	434	42.3501	-83.0536	DTN (1881-1888)	Recreation Park (Detroit) (1881-1888); Recreation Park (1881-1888)			Detroit	MI	US						
PHI03	Oakdale Park (Philadelphia)	1882-05-02	1882-09-21	0	39	40.7322	-74.0517	PH4 (1882-1882)	Oakdale Park (Philadelphia) (1882-1882); Oakdale Park (1882-1882)			Philadelphia	PA	US						
STL03	Sportsman's Park I	1882-05-02	1892-10-13	0	716	NULL	NULL	SLN (1892-1892); SL4 (1882-1891)	Sportsman's Park I (1882-1892)			Saint Louis	MO	US						
LOU02	Eclipse Park I	1882-05-05	1893-05-04	0	677	38.2374	-85.7598	LS3 (1892-1893); LS2 (1882-1891)	Eclipse Park I (1882-1893)			Louisville	KY	US						
PIT02	Exposition Park I	1882-05-10	1884-10-15	0	130	NULL	NULL	PT1 (1882-1884); CHU (1884-1884) [alt]	Exposition Park I (1882-1884); Lower Field			Pittsburgh	PA	US						PTU: 8/25 to 8/30/1884 | PT1:1882-1883 | CHU played 5 games here as an alternate (neutral) site from 1884-08-25 until 1884-08-30: Team moved from Chicago and played s
WAT01	Troy Ball Club Grounds	1882-05-20	1882-08-26	0	37	NULL	NULL	TRN (1882-1882)	Troy Ball Club Grounds (1882-1882)			Watervliet	NY	US						
ALB02	Greenbush Grounds	1882-05-30	1882-05-30	0	1	NULL	NULL	TRN (1882-1882) [alt]	Greenbush Grounds (1882-1882)			Rensselaer	NY	US						TRN played 1 games here as an alternate (neutral) site from 1882-05-30 until 1882-05-30
FOR02	Swinney Park	1882-10-24	1882-10-24	0	NULL	NULL	NULL		Swinney Park			Fort Wayne	IN	US						Stadium only found in old parkcodes.txt, data suspect | Last game of playoffs (CHN &amp; PRO)
BAL03	Oriole Park I	1883-05-01	1889-10-10	0	419	39.3213	-76.6085	BL2 (1883-1889)	Oriole Park I (1883-1889); Oriole Park			Baltimore	MD	US						
COL01	Recreation Park (Columbus) I	1883-05-01	1884-09-22	0	102	NULL	NULL	CL5 (1883-1884)	Recreation Park (Columbus) I (1883-1884); Recreation Park I (1883-1884)			Columbus	OH	US						
NYC03	Polo Grounds I (Southeast Diamond)	1883-05-01	1888-10-13	0	448	40.7974	-73.9488	NY4 (1883-1885); NY1 (1883-1888)	Polo Grounds I (Southeast Diamond) (1883-1888); Polo Grounds I West Diamond; Polo Grounds I			New York	NY	US						
PHI04	Recreation Park (Philadelphia)	1883-05-01	1886-10-09	0	224	39.9827	-75.173	PHI (1883-1886)	Recreation Park (Philadelphia) (1883-1886); Recreation Park (1883-1886)			Philadelphia	PA	US						
PIT03	Exposition Park II	1883-05-01	1883-06-09	0	17	NULL	NULL	PT1 (1883-1883)	Exposition Park II (1883-1883); Upper Field			Pittsburgh	PA	US						
CHI04	Lake Front Park III	1883-05-05	1884-10-11	0	106	NULL	NULL	CHN (1883-1884)	Lake Front Park III (1883-1884); Lake Front Park II			Chicago	IL	US						
NYC04	Polo Grounds II (Southwest Diamond)	1883-05-30	1883-09-06	0	37	NULL	NULL	NY4 (1883-1883)	Polo Grounds II (Southwest Diamond) (1883-1883)			New York	NY	US						
BAL04	Belair Lot	1884-04-17	1884-09-24	0	50	NULL	NULL	BLU (1884-1884); CHU (1884-1884) [alt]	Belair Lot (1884-1884)			Baltimore	MD	US						CHU played 1 games here as an alternate (neutral) site from 1884-09-17 until 1884-09-17
PHI05	Keystone Park	1884-04-17	1884-08-07	0	35	NULL	NULL	PHU (1884-1884)	Keystone Park (1884-1884)			Philadelphia	PA	US						
WAS03	Capitol Grounds	1884-04-18	1884-09-25	0	65	NULL	NULL	WSU (1884-1884)	Capitol Grounds (1884-1884)			Washington	DC	US						
STL04	Union Grounds	1884-04-20	1886-09-23	0	176	38.6713	-90.2193	SLU (1884-1884); SL5 (1885-1886)	Union Grounds (1884-1886); Union Grounds (Saint Louis) (1884-1886); Sportsman's Park I			Saint Louis	MO	US						
ALT01	Columbia Park (Altoona)	1884-04-30	1884-05-31	0	18	NULL	NULL	ALT (1884-1884)	Columbia Park (Altoona) (1884-1884); Columbia Park (1884-1884)			Altoona	PA	US						
BOS02	Dartmouth Grounds	1884-04-30	1884-09-24	0	57	NULL	NULL	BSU (1884-1884)	Dartmouth Grounds (1884-1884); Union Park			Boston	MA	US						BSN:5/16 to 6/20/1894
CIN04	League Park (Cincinnati) I	1884-05-01	1893-09-29	0	699	39.1168	-84.5342	CN2 (1884-1889); CIN (1890-1893)	League Park (Cincinnati) I (1884-1893); League Park I (1884-1893); League Park I in Cincinnati			Cincinnati	OH	US						
WAS04	Athletic Park (Washington)	1884-05-01	1884-08-02	0	30	NULL	NULL	WS7 (1884-1884)	Athletic Park (Washington) (1884-1884); Athletic Park (1884-1884)			Washington	DC	US						
CHI05	South Side Park I	1884-05-02	1884-08-01	0	35	NULL	NULL	CHU (1884-1884)	South Side Park I (1884-1884); Union Grounds; Cricket Club Grounds			Chicago	IL	US						
NYC05	Washington Park I	1884-05-05	1889-05-04	0	290	40.6726	-73.9839	BR3 (1884-1889); CN2 (1884-1884) [alt]	Washington Park I (1884-1889)			Brooklyn	NY	US						CN2 played 1 games here as an alternate (neutral) site from 1884-10-10 until 1884-10-10
NYC06	Metropolitan Park	1884-05-13	1884-08-23	0	33	NULL	NULL	NY4 (1884-1884)	Metropolitan Park (1884-1884)			New York	NY	US						
IND02	Seventh Street Park I	1884-05-14	1884-09-20	0	45	NULL	NULL	IN2 (1884-1884)	Seventh Street Park I (1884-1884); Seventh Street Park			Indianapolis	IN	US						
TOL01	League Park (Toledo)	1884-05-14	1884-09-24	0	54	NULL	NULL	TL1 (1884-1884)	League Park (Toledo) (1884-1884); League Park (1884-1884)			Toledo	OH	US						
IND03	Bruce Grounds	1884-05-18	1884-09-21	0	11	NULL	NULL	IN2 (1884-1884)	Bruce Grounds (1884-1884)			Indianapolis	IN	US						IN2:Sundays
BUF02	Olympic Park I	1884-05-21	1885-10-09	0	109	42.8864	-78.8786	BFN (1884-1885)	Olympic Park I (1884-1885)			Buffalo	NY	US						
KAN01	Athletic Park (Kansas City)	1884-06-07	1884-10-19	0	36	NULL	NULL	KCU (1884-1884)	Athletic Park (Kansas City) (1884-1884); Athletic Park (1884-1884)			Kansas City	MO	US						
RIC02	Allens Pasture	1884-08-05	1884-10-15	0	22	NULL	NULL	RIC (1884-1884)	Allens Pasture (1884-1884); Virginia Base-Ball Park; Allen Pasture			Richmond	VA	US						
BAL05	Monumental Park	1884-08-25	1884-08-25	0	1	NULL	NULL	BLU (1884-1884) [alt]	Monumental Park (1884-1884)			Baltimore	MD	US						BLU played 1 games here as an alternate (neutral) site from 1884-08-25 until 1884-08-25
WIL01	Union Street Park	1884-09-02	1884-09-10	0	7	NULL	NULL	WIL (1884-1884)	Union Street Park (1884-1884); Wilmington Grounds			Wilmington	DE	US						Forfeit on 1884-9-15
TOL02	Tri-State Fair Grounds	1884-09-13	1884-09-13	0	1	NULL	NULL	TL1 (1884-1884)	Tri-State Fair Grounds (1884-1884)			Toledo	OH	US						
MIL02	Wright Street Grounds	1884-09-27	1885-09-25	0	14	NULL	NULL	MLU (1884-1884); CHN (1885-1885) [alt]	Wright Street Grounds (1884-1884)			Milwaukee	WI	US						UA:1884 | PRO: 9/25/1885 | CHN played 2 games here as an alternate (neutral) site from 1885-09-04 until 1885-09-25 | BFN:9/4/1885
PIT04	Recreation Park (Pittsburgh)	1885-04-28	1890-09-30	0	372	NULL	NULL	PT1 (1885-1886); PIT (1887-1890)	Recreation Park (Pittsburgh) (1884-1890); Recreation Park (1884-1890)			Pittsburgh	PA	US						
CHI06	West Side Park	1885-06-06	1891-10-02	0	429	NULL	NULL	CHN (1885-1891)	West Side Park (1885-1891); West Side Park I			Chicago	IL	US						CHN:1891(M/W/F)
ELM01	Maple Avenue Driving Park	1885-10-10	1885-10-10	0	2	NULL	NULL	BFN (1885-1885) [alt]	Maple Avenue Driving Park (1885-1885)			Elmira	NY	US						BFN played 2 games here as an alternate (neutral) site from 1885-10-10 until 1885-10-10
SAI01	St. George Cricket Grounds	1886-04-22	1889-06-14	0	150	40.5903	-74.1434	NY4 (1886-1887); NY1 (1889-1889) [alt]	St. George Cricket Grounds (1886-1889)			Staten Island	NY	US						NY1 played 23 games here as an alternate (neutral) site from 1889-04-29 until 1889-06-14
WAS05	Swampoodle Grounds	1886-04-29	1889-09-21	0	250	38.8973	-77.0053	WS8 (1886-1889)	Swampoodle Grounds (1886-1889); Swampdoodle Grounds			Washington	DC	US						
KAN02	Association Park	1886-04-30	1892-10-15	0	121	39.0909	-94.5499	KCN (1886-1886); KC2 (1888-1888); SLN (1892-1892) [alt]	Association Park (1886-1892); Association Park I			Kansas City	MO	US						SLN played 3 games here as an alternate (neutral) site from 1892-08-23 until 1892-10-15
NYC07	Ridgewood Park I	1886-05-02	1886-09-19	0	14	NULL	NULL	BR3 (1886-1886)	Ridgewood Park I (1886-1886); Ridgewood Park			Brooklyn	NY	US						BR3:Sundays (1886-1889)
NYC18	Ridgewood Park II	1887-04-24	1890-06-08	0	77	NULL	NULL	BR4 (1890-1890); BR3 (1887-1889)	Ridgewood Park II (1887-1890); Ridgewood Park			Brooklyn	NY	US						
IND04	Seventh Street Park II	1887-04-28	1887-10-08	0	64	39.7891	-86.1584	IN3 (1887-1887)	Seventh Street Park II (1887-1887); Athletic Park I			Indianapolis	IN	US						
PHI06	Huntingdon Grounds I	1887-04-30	1894-08-04	0	531	42.3391	-71.0928	PHI (1887-1894)	Huntingdon Grounds I (1887-1894); Philadelphia Baseball Grounds			Philadelphia	PA	US						No games 8/7/1894 to 8/17/1894 | Fire 8/6/1894
CLE03	League Park II	1887-05-04	1890-10-04	0	247	41.4913	-81.6418	CL4 (1889-1890); CL3 (1887-1888)	League Park II (1887-1890); League Park (Cleveland) II (1887-1890); National League Park II; National League Park; American Association Park			Cleveland	OH	US						
WOR02	Agricultural County Fair Grounds II	1887-08-17	1887-08-17	0	1	NULL	NULL	WS8 (1887-1887) [alt]	Agricultural County Fair Grounds II (1887-1887)			Worcester	MA	US						WS8 played 1 games here as an alternate (neutral) site from 1887-08-17 until 1887-08-17 | BSN: 1 game
CLE09	Cedar Avenue Driving Park	1887-08-21	1887-08-21	0	1	NULL	NULL	CL3 (1887-1887) [alt]	Cedar Avenue Driving Park (1887-1887)			Cleveland	OH	US						CL3 played 1 games here as an alternate (neutral) site from 1887-08-21 until 1887-08-21: Alternate park for Sunday and/or holiday games
WEE01	Monitor Grounds	1887-09-11	1887-09-11	0	1	NULL	NULL	NY4 (1887-1887) [alt]	Monitor Grounds (1887-1887); Monitor Park			Weehawken	NJ	US						NY4 played 1 games here as an alternate (neutral) site from 1887-09-11 until 1887-09-11
IND05	Seventh Street Park III	1888-04-20	1889-10-05	0	135	39.7891	-86.1584	IN3 (1888-1889)	Seventh Street Park III (1888-1889); Athletic Park II			Indianapolis	IN	US						
BOS03	South End Grounds II	1888-05-25	1894-05-14	0	420	NULL	NULL	BSN (1888-1894)	South End Grounds II (1888-1894)			Boston	MA	US						
GLO01	Gloucester Point Grounds	1888-06-10	1890-10-12	0	31	NULL	NULL	PH4 (1888-1890) [alt]	Gloucester Point Grounds (1888-1890)			Gloucester City	NJ	US						Sundays | PH4 played 31 games here as an alternate (neutral) site from 1888-06-10 until 1890-10-12: Alternate park for Sunday and/or holiday games
GEA01	Geauga Lake Grounds	1888-07-22	1888-09-02	0	4	NULL	NULL	CL3 (1888-1888) [alt]	Geauga Lake Grounds (1888-1888); Geagua Lake Grounds			Aurora	OH	US	44202					CL3 played 4 games here as an alternate (neutral) site from 1888-07-22 until 1888-09-02: Alternate park for Sunday and/or holiday games
JER01	Oakdale Park (Jersey City)	1889-04-24	1889-04-25	0	2	NULL	NULL	NY1 (1889-1889) [alt]	Oakdale Park (Jersey City) (1889-1889); Oakdale Park (1889-1889)			Jersey City	NJ	US						NY1 played 2 games here as an alternate (neutral) site from 1889-04-24 until 1889-04-25
KAN03	Exposition Park	1889-04-25	1889-09-30	0	70	40.4466	-80.006	KC2 (1889-1889)	Exposition Park (1889-1889)			Kansas City	MO	US						
COL02	Recreation Park (Columbus) II	1889-04-28	1891-09-22	0	203	NULL	NULL	CL6 (1889-1891)	Recreation Park (Columbus) II (1889-1891); Recreation Park II (1889-1891)			Columbus	OH	US						
NYC08	Washington Park II	1889-05-30	1890-10-03	0	123	40.6746	-73.9871	BRO (1890-1890); BR3 (1889-1889)	Washington Park II (1889-1890)			Brooklyn	NY	US						
NYC09	Polo Grounds III	1889-07-08	1890-09-13	0	112	NULL	NULL	NY1 (1889-1890); BR4 (1890-1890)	Polo Grounds III (1889-1890); Polo Grounds II			New York	NY	US						
BOS04	Congress Street Grounds	1890-04-19	1894-06-20	0	167	NULL	NULL	BSP (1890-1890); BSN (1894-1894); BS2 (1891-1891)	Congress Street Grounds (1890-1894)			Boston	MA	US						BS2:1891
BUF03	Olympic Park II	1890-04-19	1890-10-04	0	65	NULL	NULL	BFP (1890-1890)	Olympic Park II (1890-1890)			Buffalo	NY	US						
NYC10	Polo Grounds IV	1890-04-19	1911-04-13	0	1545	40.8307	-73.9371	NYP (1890-1890); NY1 (1891-1911)	Polo Grounds IV (1890-1911); Polo Grounds III			New York	NY	US						
PIT05	Exposition Park III	1890-04-19	1915-10-02	0	1570	NULL	NULL	PTP (1890-1890); PTF (1914-1915); PIT (1891-1909); PHI (1892-1892) [alt]	Exposition Park III (1890-1915); Exposition Park			Pittsburgh	PA	US						PHI played 2 games here as an alternate (neutral) site from 1892-06-30 until 1892-06-30
NYC11	Eastern Park	1890-04-28	1897-10-02	0	554	40.6679	-73.9012	BRP (1890-1890); BRO (1891-1897)	Eastern Park (1890-1897)			Brooklyn	NY	US						
ROC01	Culver Field I	1890-04-28	1890-10-04	0	57	NULL	NULL	RC2 (1890-1890)	Culver Field I (1890-1890)			Rochester	NY	US						
SYR02	Star Park II	1890-04-28	1890-10-04	0	54	NULL	NULL	SR2 (1890-1890)	Star Park II (1890-1890)			Syracuse	NY	US						
CLE04	Brotherhood Park	1890-04-30	1890-10-04	0	62	NULL	NULL	CLP (1890-1890)	Brotherhood Park (1890-1890); Players League Park			Cleveland	OH	US						
PHI07	Forepaugh Park	1890-04-30	1890-09-17	0	65	NULL	NULL	PHP (1890-1890)	Forepaugh Park (1890-1890)			Philadelphia	PA	US						
TOL03	Speranza Park	1890-05-01	1890-10-02	0	68	NULL	NULL	TL2 (1890-1890)	Speranza Park (1890-1890)			Toledo	OH	US						
CHI07	South Side Park II	1890-05-05	1893-09-27	0	232	NULL	NULL	CHP (1890-1890); CHN (1891-1893)	South Side Park II (1890-1893); South Side Park I			Chicago	IL	US						CHN:1891(Tu/Th/Sa)
IRO01	Windsor Beach	1890-05-11	1890-07-20	0	6	NULL	NULL	RC2 (1890-1890) [alt]	Windsor Beach (1890-1890)			Rochester	NY	US						RC2: Sundays | RC2 played 6 games here as an alternate (neutral) site from 1890-05-11 until 1890-07-20: Alternate park for Sunday and/or holiday games
THR01	Three Rivers Park	1890-05-18	1890-07-20	0	5	43.2005	-76.2784	SR2 (1890-1890) [alt]	Three Rivers Park (1890-1890)			Clay	NY	US	13041					SR2 played 5 games here as an alternate (neutral) site from 1890-05-25 until 1890-07-20: Alternate park for Sunday and/or holiday games
MAS01	Long Island Grounds	1890-07-27	1890-08-03	0	2	NULL	NULL	BR4 (1890-1890) [alt]	Long Island Grounds (1890-1890)			Maspeth	NY	US						BR4 played 2 games here as an alternate (neutral) site from 1890-07-27 until 1890-08-03
IND06	Indianapolis Park	1890-07-28	1890-08-02	0	6	NULL	NULL	CL4 (1890-1890) [alt]	Indianapolis Park (1890-1890)			Indianapolis	IN	US						CL4 played 3 games here as an alternate (neutral) site from 1890-07-30 until 1890-08-02
SYR03	Iron Pier	1890-08-03	1890-08-03	0	1	NULL	NULL	SR2 (1890-1890) [alt]	Iron Pier (1890-1890)			Syracuse	NY	US						SR2 played 1 games here as an alternate (neutral) site from 1890-08-03 until 1890-08-03: Alternate park for Sunday and/or holiday games | No game ever played here: Fo
BAL06	Oriole Park II	1890-08-27	1891-05-09	0	36	NULL	NULL	BL3 (1890-1891)	Oriole Park II (1890-1891); Oriole Park			Baltimore	MD	US						
CAN01	Mahaffey Park	1890-09-18	1903-06-21	0	4	NULL	NULL	PIT (1890-1890) [alt]; CLE (1902-1903) [alt]	Mahaffey Park (1890-1903)			Canton	OH	US						PIT played 1 games here as an alternate (neutral) site from 1890-09-18 until 1890-09-18 | CLE played 3 games here as an alternate (neutral) site from 1902-06-15 until
WHE01	Island Grounds	1890-09-22	1890-09-22	0	1	NULL	NULL	PIT (1890-1890) [alt]	Island Grounds (1890-1890)			Wheeling	WV	US						PIT played 1 games here as an alternate (neutral) site from 1890-09-22 until 1890-09-22
WAS06	Boundary Field	1891-04-13	1899-10-14	0	617	38.9176	-77.0174	WSN (1892-1899); WS9 (1891-1891)	Boundary Field (1891-1899)			Washington	DC	US						
PEN01	Pendleton Park	1891-04-25	1891-08-13	0	44	39.125	-84.4742	CN3 (1891-1891)	Pendleton Park (1891-1891); East End Park			Cincinnati	OH	US	45226					
CLE05	League Park III	1891-05-01	1909-09-06	0	1220	41.5112	-81.6421	CLE (1901-1909); CL4 (1891-1899)	League Park III (1891-1909); League Park (Cleveland) III (1891-1909); National League Park III; League Park I			Cleveland	OH	US						
BAL07	Oriole Park III	1891-05-11	1899-10-10	0	618	NULL	NULL	BLN (1892-1899); BL3 (1891-1891)	Oriole Park III (1891-1899); Union Park			Baltimore	MD	US						
MIL03	Borchert Field	1891-09-10	1891-10-04	0	20	NULL	NULL	ML3 (1891-1891)	Borchert Field (1891-1891); Athletic Field			Milwaukee	WI	US						
MIN01	Athletic Park (Minneapolis)	1891-10-02	1891-10-02	0	1	NULL	NULL	ML3 (1891-1891) [alt]	Athletic Park (Minneapolis) (1891-1891); Athletic Park (1891-1891)			Minneapolis	MN	US						ML3 played 1 games here as an alternate (neutral) site from 1891-10-02 until 1891-10-02 | ML2
STL05	Robison Field	1893-04-27	1920-06-06	0	2021	38.6624	-90.221	SLN (1893-1920); CL4 (1898-1899) [alt]	Robison Field (1893-1920)			Saint Louis	MO	US						CL4 played 3 games here as an alternate (neutral) site from 1898-09-28 until 1899-09-24
CHI08	West Side Grounds	1893-05-14	1915-10-03	0	1688	41.8688	-87.6686	CL4 (1898-1898) [alt]; CHN (1893-1915) [alt]	West Side Grounds (1893-1915); West Side Park II			Chicago	IL	US						CL4 played 1 games here as an alternate (neutral) site from 1898-10-08 until 1898-10-08 | CHN:1893(Sun) | CHN played 1 games here as an alternate (neutral) site from 
LOU03	Eclipse Park II	1893-05-22	1899-09-02	0	446	NULL	NULL	LS3 (1893-1899)	Eclipse Park II (1893-1899)			Louisville	KY	US						
CIN05	League Park (Cincinnati) II	1894-04-20	1901-10-06	0	578	39.1168	-84.5342	CIN (1894-1901)	League Park (Cincinnati) II (1894-1901); League Park II (1894-1901); League Park II in Cincinnati			Cincinnati	OH	US						
BOS05	South End Grounds III	1894-07-20	1914-08-11	0	1489	NULL	NULL	BSN (1894-1914)	South End Grounds III (1894-1914)			Boston	MA	US						
PHI08	University of Penn. Athletic Field	1894-08-11	1894-08-17	0	6	NULL	NULL	PHI (1894-1894) [alt]	University of Penn. Athletic Field (1894-1894)			Philadelphia	PA	US						PHI played 6 games here as an alternate (neutral) site from 1894-08-11 until 1894-08-17: Fire at Huntington Street Grounds
PHI14	Huntingdon Grounds II	1894-08-18	1894-09-06	0	22	NULL	NULL	PHI (1894-1894)	Huntingdon Grounds II (1894-1894)			Philadelphia	PA	US						
PHI09	Baker Bowl	1895-05-02	1938-06-30	0	3218	39.9932	-75.1556	PHI (1895-1938); CL4 (1898-1898) [alt]	Baker Bowl (1895-1938)			Philadelphia	PA	US						CL4 played 9 games here as an alternate (neutral) site from 1898-07-29 until 1898-08-11
NYC12	Washington Park III	1898-04-30	1915-09-30	0	1279	NULL	NULL	BRO (1898-1912); BRF (1914-1915)	Washington Park III (1898-1915)			Brooklyn	NY	US						
CLL01	Euclid Beach Park	1898-06-12	1898-06-19	0	2	NULL	NULL	CL4 (1898-1898) [alt]	Euclid Beach Park (1898-1898)			Cleveland	OH	US	44110					CL4 played 2 games here as an alternate (neutral) site from 1898-06-12 until 1898-06-19: Alternate park for Sunday and/or holiday games
ROC02	Culver Field II	1898-08-27	1898-08-29	0	2	NULL	NULL	CL4 (1898-1898) [alt]	Culver Field II (1898-1898)			Rochester	NY	US						CL4 played 2 games here as an alternate (neutral) site from 1898-08-27 until 1898-08-29
ROC03	Ontario Beach Grounds	1898-08-28	1898-08-28	0	1	NULL	NULL	CL4 (1898-1898) [alt]	Ontario Beach Grounds (1898-1898)			Rochester	NY	US						CL4 played 1 games here as an alternate (neutral) site from 1898-08-28 until 1898-08-28
WNY01	West New York Field Club Grounds	1898-09-11	1899-09-17	0	7	NULL	NULL	NY1 (1898-1899) [alt]; BRO (1898-1898) [alt]	West New York Field Club Grounds (1898-1899)			West New York	NJ	US						NY1 played 5 games here as an alternate (neutral) site from 1898-09-11 until 1899-09-17 | BRO played 2 games here as an alternate (neutral) site from 1898-09-18 until
CHI09	South Side Park III	1901-04-24	1910-06-27	0	718	41.8225	-87.6279	CHA (1901-1910)	South Side Park III (1901-1910); South Side Park II			Chicago	IL	US						
DET02	Bennett Park	1901-04-25	1911-09-10	0	796	42.3373	-83.0578	DET (1901-1911)	Bennett Park (1901-1911)			Detroit	MI	US						
BAL09	Oriole Park IV	1901-04-26	1902-09-29	0	130	38.9025	-76.9875	BLA (1901-1902)	Oriole Park IV (1901-1902); Oriole Park; American League Park			Baltimore	MD	US						
PHI10	Columbia Park (Philadelphia)	1901-04-26	1908-10-03	0	599	39.9801	-75.1813	PHA (1901-1908); PHI (1903-1903) [alt]	Columbia Park (Philadelphia) (1901-1908); Columbia Park (1901-1908)			Philadelphia	PA	US						PHI played 16 games here as an alternate (neutral) site from 1903-08-20 until 1903-09-10: Serious structural accident at the Baker Bowl
DET03	Burns Park	1901-04-28	1902-09-07	0	23	NULL	NULL	DET (1901-1902)	Burns Park (1901-1902); West End Park			Detroit	MI	US						Sundays only
WAS07	American League Park I	1901-04-29	1903-09-28	0	207	NULL	NULL	WS1 (1901-1903)	American League Park I (1901-1903)			Washington	DC	US						First PA announcer (1902)
MIL04	Lloyd Street Grounds	1901-05-03	1901-09-12	0	70	43.0589	-87.9314	MLA (1901-1901)	Lloyd Street Grounds (1901-1901)			Milwaukee	WI	US						
BOS06	Huntington Avenue Baseball Grounds	1901-05-08	1911-10-07	0	831	NULL	NULL	BOS (1901-1911)	Huntington Avenue Baseball Grounds (1901-1911); Huntington Avenue Grounds			Boston	MA	US						
CIN06	Palace of the Fans	1902-04-17	1911-10-12	0	779	39.1168	-84.5342	CIN (1902-1911)	Palace of the Fans (1902-1911); League Park III			Cincinnati	OH	US						
STL06	Sportsman's Park II	1902-04-23	1908-10-06	0	530	38.6575	-90.2188	SLA (1902-1908)	Sportsman's Park II (1902-1908); Sportsman's Park III			Saint Louis	MO	US						
DAY01	Fairview Park	1902-06-08	1902-06-08	0	1	NULL	NULL	CLE (1902-1902) [alt]	Fairview Park (1902-1902)			Dayton	OH	US						CLE played 1 games here as an alternate (neutral) site from 1902-06-08 until 1902-06-08: Alternate park for Sunday and/or holiday games
FOR03	Jailhouse Flats	1902-06-22	1902-08-31	0	2	NULL	NULL	CLE (1902-1902) [alt]	Jailhouse Flats (1902-1902)			Fort Wayne	IN	US						CLE played 2 games here as an alternate (neutral) site from 1902-06-22 until 1902-08-31: Alternate park for Sunday and/or holiday games
COL03	Neil Park I	1902-08-03	1903-05-17	0	2	NULL	NULL	CLE (1902-1903) [alt]	Neil Park I (1902-1903)			Columbus	OH	US						CLE played 2 games here as an alternate (neutral) site from 1902-08-03 until 1903-05-17: Alternate park for Sunday and/or holiday games
NYC13	Hilltop Park	1903-04-30	1912-10-05	0	776	40.8405	-73.9419	NYA (1903-1912); NY1 (1911-1911) [alt]	Hilltop Park (1903-1912)			New York	NY	US						NY1 played 28 games here as an alternate (neutral) site from 1911-04-15 until 1911-05-30: Fire at Polo Grounds IV
GRA01	Ramona Park	1903-05-24	1903-05-24	0	1	NULL	NULL	DET (1903-1903) [alt]	Ramona Park (1903-1903)			Grand Rapids	MI	US						DET played 1 games here as an alternate (neutral) site from 1903-05-24 until 1903-05-24: Alternate park for Sunday and/or holiday games
TOL04	Armory Park	1903-06-28	1903-08-16	0	2	NULL	NULL	DET (1903-1903) [alt]	Armory Park (1903-1903)			Toledo	OH	US						DET played 2 games here as an alternate (neutral) site from 1903-06-28 until 1903-08-16: Alternate park for Sunday and/or holiday games
WAR01	Rocky Point Park	1903-09-06	1903-09-06	0	1	NULL	NULL	BSN (1903-1903) [alt]	Rocky Point Park (1903-1903)			Warwick	RI	US						outfield surrounded by ocean | BSN played 1 games here as an alternate (neutral) site from 1903-09-06 until 1903-09-06: Alternate park for Sunday and/or holiday games
WAS08	American League Park II	1904-04-14	1910-10-06	0	537	NULL	NULL	WS1 (1904-1910)	American League Park II (1904-1910)			Washington	DC	US						
NWK01	Wiedenmeyer's Park	1904-07-17	1904-07-17	0	1	NULL	NULL	NYA (1904-1904) [alt]	Wiedenmeyer's Park (1904-1904)			Newark	NJ	US						NYA played 1 games here as an alternate (neutral) site from 1904-07-17 until 1904-07-17: Alternate park for Sunday and/or holiday games
COL04	Neil Park II	1905-07-23	1905-07-24	0	2	NULL	NULL	DET (1905-1905) [alt]	Neil Park II (1905-1905)			Columbus	OH	US						DET played 2 games here as an alternate (neutral) site from 1905-07-23 until 1905-07-24: Opening of the Grand Circuit Trotting Meet in Detroit
PHI11	Connie Mack Stadium	1909-04-12	1970-10-01	0	6055	39.9961	-75.1651	PHA (1909-1954); PHI (1927-1970) [alt]	Connie Mack Stadium (1954-1970); Shibe Park (1909-1953)			Philadelphia	PA	US						PHI played 12 games here as an alternate (neutral) site from 1927-05-16 until 1927-05-28: Collapse of the RF grandstand at Baker Bowl
STL07	Busch Stadium I	1909-04-14	1966-05-08	0	7021	38.6575	-90.2188	SLN (1920-1966); SLA (1909-1953)	Busch Stadium I (1953-1966); Sportsman's Park III (1909-1952); Sportsman's Park IV			Saint Louis	MO	US						
PIT06	Forbes Field	1909-06-30	1970-06-28	0	4760	40.4414	-79.9548	PIT (1909-1970)	Forbes Field (1909-1970)			Pittsburgh	PA	US						
CLE06	League Park IV	1910-04-21	1946-09-21	0	2376	NULL	NULL	CLE (1910-1946)	League Park IV (1928-1946); Dunn Field (1916-1927); League Park (Cleveland) IV (1928-1946); League Park II			Cleveland	OH	US						
CHI10	Comiskey Park I	1910-07-01	1990-09-30	0	6247	41.8329	-87.6341	CHA (1910-1990); CHN (1918-1918) [alt]	Comiskey Park I (1913-1990); White Sox Park II (1910-1912); White Sox Park; Comiskey Park			Chicago	IL	US						CHN played 3 games here as an alternate (neutral) site from 1918-09-05 until 1918-09-07: To accommodate large crowd [World Series]
WAS09	Griffith Stadium	1911-04-12	1961-09-21	0	3945	38.9169	-77.0176	WS2 (1961-1961); WS1 (1911-1960)	Griffith Stadium (1911-1961); Griffith Stadium II; Griffith Stadium I			Washington	DC	US						
NYC14	Polo Grounds V	1911-06-28	1963-09-18	0	4490	40.8326	-73.9367	NYN (1962-1963); NY1 (1911-1957); NYA (1912-1922) [alt]	Polo Grounds V (1911-1963); Polo Grounds IV			New York	NY	US						NYA played 3 games here as an alternate (neutral) site from 1912-05-30 until 1912-09-02: To accommodate large crowd
CIN07	Crosley Field	1912-04-11	1970-06-24	0	4544	39.1168	-84.5342	CIN (1912-1970)	Crosley Field (1934-1970); Redland Field (1912-1933)			Cincinnati	OH	US						
BOS07	Fenway Park	1912-04-20	0000-00-00	1	7454	42.3467	-71.097	BOS (1912-now); BSN (1913-1946) [alt]	Fenway Park (1912-now); Fenway Park II; Fenway Park I	4 Yawkey Way		Boston	MA	US	02215	(617) 267-9440	redsox.com		logo_bos_79x76.jpg	BSN played 52 games here as an alternate (neutral) site from 1915-04-14 until 1915-07-26: Delay in the opening of Braves Field | BSN played 31 games here as an altern
DET04	Tiger Stadium	1912-04-20	1999-09-27	0	6879	42.3325	-83.0681	DET (1912-1999)	Tiger Stadium (1962-1999); Navin Field (1912-1937); Briggs Stadium (1938-1961)			Detroit	MI	US						
NYC15	Ebbets Field	1913-04-09	1957-09-24	0	3447	40.6651	-73.9574	BRO (1913-1957)	Ebbets Field (1913-1957)			Brooklyn	NY	US						
BAL10	Terrapin Park	1914-04-13	1915-10-02	0	158	NULL	NULL	BLF (1914-1915)	Terrapin Park (1914-1915); Oriole Park V			Baltimore	MD	US						
KAN04	Gordon and Koppel Field	1914-04-16	1915-09-28	0	151	NULL	NULL	KCF (1914-1915)	Gordon and Koppel Field (1914-1915)			Kansas City	MO	US						
STL08	Handlan's Park	1914-04-16	1915-10-03	0	158	NULL	NULL	SLF (1914-1915)	Handlan's Park (1914-1915); Federal League Park			Saint Louis	MO	US						
CHI11	Wrigley Field	1914-04-23	0000-00-00	1	7305	41.9482	-87.6554	CHN (1916-now); CHF (1914-1915)	Wrigley Field (1927-now); Weeghman Park (1914-1918); Cubs Park (1919-1926); Wrigley Field (Chicago) (1927-now)	1060 West Addison		Chicago	IL	US	60613-4397	(773) 404-2827	cubs.com	loscubs.com	logo_chc_79x76.jpg	
IND07	Federal League Park	1914-04-23	1914-10-08	0	80	NULL	NULL	IND (1914-1914)	Federal League Park (1914-1914); Washington Park			Indianapolis	IN	US						
BUF04	International Fair Association Grounds	1914-05-11	1915-09-08	0	156	NULL	NULL	BUF (1914-1915)	International Fair Association Grounds (1914-1915); Federal League Park			Buffalo	NY	US						
HAR01	Harrison Park	1915-04-16	1915-10-03	0	79	NULL	NULL	NEW (1915-1915)	Harrison Park (1915-1915); Harrison Field			Harrison	NJ	US						
BOS08	Braves Field	1915-08-18	1952-09-21	0	2863	42.3533	-71.1192	BSN (1915-1952); BOS (1929-1932) [alt]	Braves Field (1915-1952); Bee Hive			Boston	MA	US						BOS played 52 games here as an alternate (neutral) site from 1929-04-28 until 1932-05-29: Alternate park for Sunday and/or holiday games | BOS played 2 games here as 
NYC16	Yankee Stadium	1923-04-18	0000-00-00	1	6419	40.8266	-73.9274	NYA (1923-now)	Yankee Stadium (1923-now); Yankee Stadium II; Yankee Stadium I	161st Street and River Avenue		Bronx	NY	US	10451	(718) 293-4300	yankees.com	yankeesbeisbol.com	logo_nyy_79x76.jpg	No games 1974-75 | BDB designates as two different stadiums
CLE07	Cleveland Stadium	1932-07-31	1993-10-03	0	4196	39.0852	-94.5539	CLE (1932-1993)	Cleveland Stadium (1932-1993); Municipal Stadium			Cleveland	OH	US						
MIL05	County Stadium	1953-04-14	2000-09-28	0	3484	43.0299	-87.9724	MLN (1953-1965); MIL (1970-2000); CHA (1968-1969) [alt]	County Stadium (1953-2000)			Milwaukee	WI	US						CHA played 20 games here as an alternate (neutral) site from 1968-05-15 until 1969-09-26: Marketing move by Major League Baseball
BAL11	Memorial Stadium	1954-04-15	1991-10-06	0	3006	39.3301	-76.6013	BAL (1954-1991)	Memorial Stadium (1954-1991)			Baltimore	MD	US						
KAN05	Municipal Stadium	1955-04-12	1972-10-04	0	1348	NULL	NULL	KCA (1969-1972); KC1 (1955-1967)	Municipal Stadium (1955-1972); Municipal Stadium II; Municipal Stadium I			Kansas City	MO	US						
JER02	Roosevelt Stadium	1956-04-19	1957-09-03	0	15	40.7063	-74.1008	BRO (1956-1957) [alt]	Roosevelt Stadium (1956-1957)			Jersey City	NJ	US						BRO played 15 games here as an alternate (neutral) site from 1956-04-19 until 1957-09-03: Marketing move by Major League Baseball
SFO01	Seals Stadium	1958-04-15	1959-09-20	0	154	37.7669	-122.409	SFN (1958-1959)	Seals Stadium (1958-1959)			San Francisco	CA	US						
LOS01	LA Memorial Coliseum	1958-04-18	1961-09-20	0	309	34.0142	-118.288	LAN (1958-1961)	LA Memorial Coliseum (1958-1961); Los Angeles Memorial Coliseum			Los Angeles	CA	US						
SFO02	3Com Park at Candlestick Point	1960-04-12	1999-09-30	0	3173	37.7128	-122.388	SFN (1960-1999)	3Com Park at Candlestick Point (1996-1999); Candlestick Park (1960-1995); 3Com Park			San Francisco	CA	US						
MIN02	Metropolitan Stadium	1961-04-21	1981-09-30	0	1674	44.8545	-93.242	MIN (1961-1981)	Metropolitan Stadium (1961-1981)			Minneapolis	MN	US						
LOS02	Wrigley Field (Los Angeles)	1961-04-27	1961-10-01	0	82	34.0075	-118.267	LAA (1961-1961)	Wrigley Field (Los Angeles) (1961-1961); Wrigley Field (1961-1961); Wrigley Field (LA)			Los Angeles	CA	US						
WAS10	Robert F. Kennedy Stadium	1962-04-09	0000-00-00	1	966	38.8899	-76.9718	WS2 (1962-1971); WAS (2005-now)	Robert F. Kennedy Stadium (1969-now); D.C. Stadium (1962-1968); RFK Stadium	2400 East Capitol Street, SE		Washington	DC	US	20003	(202) 349-0400	nationals.com		logo_was_79x76.jpg	
HOU01	Colt Stadium	1962-04-10	1964-09-27	0	244	29.6867	-95.4083	HOU (1962-1964)	Colt Stadium (1962-1964)			Houston	TX	US						
LOS03	Dodger Stadium	1962-04-10	0000-00-00	1	3904	34.0739	-118.24	LAN (1962-now); LAA (1962-1964); CAL (1965-1965)	Dodger Stadium (1962-now); Chavez Ravine	1000 Elysian Park Avenue		Los Angeles	CA	US	90012-1199	(323) 224-1500	dodgers.com	losdodgers.com	logo_la_79x76.jpg	
NYC17	Shea Stadium	1964-04-17	0000-00-00	1	3575	40.7555	-73.8475	NYN (1964-now); NYA (1974-1998) [alt]	Shea Stadium (1964-now); William A. Shea Stadium	123-01 Roosevelt Avenue		Flushing	NY	US	11368-1699	(718) 507-6387	mets.com	losmets.com	logo_nym_79x76.jpg	NYA played 1 games here as an alternate (neutral) site from 1998-04-15 until 1998-04-15: Structural accident at Yankee Stadium (falling concrete and s
HOU02	Astrodome	1965-04-12	1999-10-03	0	2774	29.6842	-95.4089	HOU (1965-1999)	Astrodome (1965-1999)			Houston	TX	US						
ATL01	Atlanta-Fulton County Stadium	1966-04-12	1996-09-23	0	2435	33.7385	-84.3884	ATL (1966-1996)	Atlanta-Fulton County Stadium (1975-1996); Atlanta Stadium (1966-1974)			Atlanta	GA	US						
ANA01	Angel Stadium of Anaheim	1966-04-19	0000-00-00	1	3269	33.8005	-117.882	CAL (1966-1996); ANA (1997-now)	Angel Stadium of Anaheim (2004-now); Anaheim Stadium (1966-1996); Edison International Field of Anaheim (1997-2003); Edison International Field; Edison Field; Angels Stadium of Anaheim; Angel Stadium	2000 Gene Autry Way		Anaheim	CA	US	92806	(714) 940-2000	angelsbaseball.com		logo_ana_79x76.jpg	
STL09	Busch Stadium II	1966-05-12	2005-10-02	0	3174	38.6234	-90.1927	SLN (1966-2005)	Busch Stadium II (1966-2005)			Saint Louis	MO	US						
OAK01	Network Associates Coliseum	1968-04-17	0000-00-00	1	3091	37.7516	-122.201	OAK (1968-now)	Network Associates Coliseum (1998-now); Oakland-Alameda County Coliseum (1968-1996); UMAX Coliseum (1997-1997); Oakland-Alameda County Stadium; Oakland Coliseum; McAfee Coliseum	7000 Coliseum Way		Oakland	CA	US	94621	(510) 638-4900	oaklandathletics.com		logo_oak_79x76.jpg	
SAN01	Qualcomm Stadium	1969-04-08	2003-09-28	0	2768	32.7817	-117.12	SDN (1969-2003)	Qualcomm Stadium (1997-2003); San Diego Stadium (1969-1980); Jack Murphy Stadium (1981-1996)			San Diego	CA	US						
SEA01	Sick's Stadium	1969-04-11	1969-10-02	0	82	47.579	-122.296	SE1 (1969-1969)	Sicks Stadium (1969-1969)			Seattle	WA	US						
MON01	Parc Jarry	1969-04-14	1976-09-26	0	641	45.5353	-73.6281	MON (1969-1976)	Parc Jarry (1969-1976); Jarry Park			Montreal	QC	CA						
CIN08	Cinergy Field	1970-06-30	2002-09-22	0	2576	39.0974	-84.5069	CIN (1970-2002)	Cinergy Field (1996-2002); Riverfront Stadium (1970-1995)			Cincinnati	OH	US						
PIT07	Three Rivers Stadium	1970-07-16	2000-10-01	0	2407	40.4472	-80.0065	PIT (1970-2000)	Three Rivers Stadium (1970-2000)			Pittsburgh	PA	US						
PHI12	Veterans Stadium	1971-04-10	2003-09-28	0	2617	39.9059	-75.1656	PHI (1971-2003)	Veterans Stadium (1971-2003)			Philadelphia	PA	US						
ARL01	Arlington Stadium	1972-04-21	1993-10-03	0	1750	32.7533	-97.0871	TEX (1972-1993)	Arlington Stadium (1972-1993)			Arlington	TX	US						
KAN06	Kauffman Stadium	1973-04-10	0000-00-00	1	2684	39.0516	-94.4801	KCA (1973-now)	Kauffman Stadium (1993-now); Royals Stadium (1973-1992)	One Royal Way		Kansas City	MO	US	64129	(816) 921-8000	royals.com		logo_kc_79x76.jpg	
SEA02	Kingdome	1977-04-06	1999-06-27	0	1755	47.5942	-122.33	SEA (1977-1999)	Kingdome (1977-1999)			Seattle	WA	US						
TOR01	Exhibition Stadium	1977-04-07	1989-05-28	0	968	43.6328	-79.4186	TOR (1977-1989)	Exhibition Stadium (1977-1989)			Toronto	ON	CA						First game: snow covering outfield
MON02	Stade Olympique	1977-04-15	2004-09-29	0	2145	45.5579	-73.5518	MON (1977-2004)	Stade Olympique (1977-2004); Olympic Stadium			Montreal	QC	CA						
MIN03	Hubert H. Humphrey Metrodome	1982-04-06	0000-00-00	1	1998	44.9738	-93.2579	MIN (1982-now)	Hubert H Humphrey Metrodome (1982-now); Metrodome	34 Kirby Puckett Place		Minneapolis	MN	US	55415	(612) 375-1366	twinsbaseball.com		logo_min_79x76.jpg	
TOR02	Rogers Centre	1989-06-05	0000-00-00	1	1401	43.6414	-79.3892	TOR (1989-now)	Rogers Centre (2005-now); Skydome (1989-2004)	1 Blue Jays Way	Suite 3200	Toronto	ON	CA	M5V1J1	(416) 341-1000	bluejays.com		logo_tor_79x76.jpg	
CHI12	U.S. Cellular Field	1991-04-18	0000-00-00	1	1263	41.8298	-87.6333	CHA (1991-now); FLO (2004-2004) [alt]	U.S. Cellular Field (2003-now); Comiskey Park II (1991-2002); White Sox Park; The Cell	333 West 35th Street		Chicago	IL	US	60616	(312) 674-1000	whitesox.com	loswhitesox.com	logo_cws_79x76.jpg	FLO played 2 games here as an alternate (neutral) site from 2004-09-13 until 2004-09-14: Threat of Hurricane Ivan in Miami (did not occur)
BAL12	Oriole Park at Camden Yards	1992-04-06	0000-00-00	1	1180	39.2839	-76.6213	BAL (1992-now)	Oriole Park at Camden Yards (1992-now)	333 West Camden Street		Baltimore	MD	US	21201	(410) 685-9800	orioles.com		logo_bal_79x76.jpg	
MIA01	Dolphins Stadium	1993-04-05	0000-00-00	1	1097	25.9579	-80.2387	FLO (1993-now)	Dolphins Stadium (2005-now); Joe Robbie Stadium (1993-1995); Pro Player Stadium (1996-2004); Dolphin Stadium	2269 Dan Marino Boulevard		Miami	FL	US	33056	(305) 626-7400	floridamarlins.com	marlinsbeisbol.com	logo_fla_79x76.jpg	
DEN01	Mile High Stadium	1993-04-09	1994-08-11	0	138	39.7431	-105.02	COL (1993-1994)	Mile High Stadium (1993-1994)			Denver	CO	US						
CLE08	Jacobs Field	1994-04-04	0000-00-00	1	1012	41.496	-81.6851	CLE (1994-now)	Jacobs Field (1994-now)	2401 Ontario Street		Cleveland	OH	US	44115	(216) 420-4200	indians.com		logo_cle_79x76.jpg	
ARL02	Rangers Ballpark in Arlington	1994-04-11	0000-00-00	1	1027	32.7512	-97.0827	TEX (1994-now)	Rangers Ballpark in Arlington (2007-now); The Ballpark in Arlington (1994-2003); Ameriquest Field in Arlington (2004-now); The Ballpark at Arlington; Ameriquest Field	1000 Ballpark Way		Arlington	TX	US	76011	(817) 273-5222	texasrangers.com		logo_tex_79x76.jpg	
DEN02	Coors Field	1995-04-26	0000-00-00	1	963	39.7562	-104.994	COL (1995-now)	Coors Field (1995-now)	2001 Blake Street		Denver	CO	US	80205-2000	(303) 292-0200	coloradorockies.com		logo_col_79x76.jpg	
LAS01	Cashman Field	1996-04-01	1996-04-07	0	6	NULL	NULL	OAK (1996-1996) [alt]	Cashman Field (1996-1996)			Las Vegas	NV	US						OAK played 6 games here as an alternate (neutral) site from 1996-04-01 until 1996-04-07: Incomplete football renovations to Oakland-Alameda County Col
MNT01	Estadio Monterrey	1996-08-16	1999-04-04	0	4	NULL	NULL	SDN (1996-1999) [alt]	Estadio Monterrey (1996-1999); Estadio de Beisbol Monterrey			Monterrey	NL	MX						SDN played 4 games here as an alternate (neutral) site from 1996-08-16 until 1999-04-04: Marketing move by Major League Baseball
ATL02	Turner Field	1997-04-04	0000-00-00	1	810	33.7354	-84.3893	ATL (1997-now)	Turner Field (1997-now)	755 Hank Aaron Drive		Atlanta	GA	US	30315	(404) 522-7630	braves.com		logo_atl_79x76.jpg	
HON01	Aloha Stadium	1997-04-19	1997-04-20	0	3	NULL	NULL	SDN (1997-1997) [alt]	Aloha Stadium (1997-1997)			Honolulu	HI	US						SDN played 3 games here as an alternate (neutral) site from 1997-04-19 until 1997-04-20: Marketing move by Major League Baseball
PHO01	Chase Field	1998-03-31	0000-00-00	1	729	33.4453	-112.067	ARI (1998-now)	Chase Field (2006-now); Bank One Ballpark (1998-2005); BOB	401 East Jefferson Street		Phoenix	AZ	US	85001	(602) 462-6500	dbacks.com	losdbacks.com	logo_ari_79x76.jpg	
STP01	Tropicana Field	1998-03-31	0000-00-00	1	725	27.768	-82.6533	TBA (1998-now)	Tropicana Field (1998-now)	One Tropicana Drive		Saint Petersburg	FL	US	33705	(727) 825-3137	devilrays.com	raysbeisbol.com	logo_tb_79x76.jpg	
SEA03	Safeco Field	1999-07-15	0000-00-00	1	610	47.5919	-122.332	SEA (1999-now)	Safeco Field (1999-now)	P.O. Box 4100		Seattle	WA	US	98104	(206) 346-4000	seattlemariners.com		logo_sea_79x76.jpg	
TOK01	Tokyo Dome	2000-03-29	2004-03-31	0	4	35.7053	139.752	TBA (2004-2004) [alt]; NYN (2000-2000) [alt]; CHN (2000-2000) [alt]	Tokyo Dome (2000-2004)			Tokyo	TK	JP						TBA played 2 games here as an alternate (neutral) site from 2004-03-30 until 2004-03-31: Marketing move by Major League Baseball | NYN played 1 games here as an alter
HOU03	Minute Maid Park	2000-04-07	0000-00-00	1	567	29.7572	-95.3552	HOU (2000-now)	Minute Maid Park (2002-now); Enron Field (2000-2001); Astros Field (2002-2001)	501 Crawford Street		Houston	TX	US	77002	(713) 259-8000	astros.com	astrosdehouston.com	logo_hou_79x76.jpg	
DET05	Comerica Park	2000-04-11	0000-00-00	1	566	42.3391	-83.0484	DET (2000-now)	Comerica Park (2000-now)	2100 Woodward Avenue		Detroit	MI	US	48201	(313) 471-2000	tigers.com		logo_det_79x76.jpg	
SFO03	AT&T Park	2000-04-11	0000-00-00	1	568	37.7787	-122.388	SFN (2000-now)	AT&T Park (2006-now); Pacific Bell Park (2000-2003); SBC Park (2004-2005); PacBell Park	24 Willie Mays Plaza		San Francisco	CA	US	94107	(415) 972-2000	sfgiants.com	sfgigantes.com	logo_sf_79x76.jpg	
SJU01	Estadio Hiram Bithorn	2001-04-01	2004-07-11	0	44	18.4166	-66.0728	TOR (2001-2001) [alt]; MON (2003-2004) [alt]	Estadio Hiram Bithorn (2001-2004); Hiram Bithorn Stadium			San Juan	PR	US						TOR played 1 games here as an alternate (neutral) site from 2001-04-01 until 2001-04-01: Marketing move by Major League Baseball | MON played 43 games here as an alte
MIL06	Miller Park	2001-04-06	0000-00-00	1	486	43.0283	-87.971	MIL (2001-now); CLE (2007-now) [alt]	Miller Park (2001-now)	One Brewers Way		Milwaukee	WI	US	53214	(414) 902-4400	brewers.com		logo_mil_79x76.jpg	CLE played 3 games here as an alternate (neutral) site from 2007-04-10 until 2007-04-12: Snow and cold weather in Cleveland
PIT08	PNC Park	2001-04-09	0000-00-00	1	484	40.4468	-80.0056	PIT (2001-now)	PNC Park (2001-now)	115 Federal Street		Pittsburgh	PA	US	15212	(412) 323-5000	pirates.com		logo_pit_79x76.jpg	
CIN09	Great American Ball Park	2003-03-31	0000-00-00	1	325	39.0971	-84.5071	CIN (2003-now)	Great American Ball Park (2003-now); Great American Ballpark	100 Main Street		Cincinnati	OH	US	45202-4109	(513) 765-7000	reds.com		logo_cin_79x76.jpg	
SAN02	PetCo Park	2004-04-08	0000-00-00	1	243	32.7072	-117.157	SDN (2004-now)	PETCO Park (2004-now)	100 Park Boulevard		San Diego	CA	US	92101	(619) 795-5000	padres.com	padresbeisbol.com	logo_sd_79x76.jpg	
PHI13	Citizens Bank Park	2004-04-12	0000-00-00	1	243	39.906	-75.1663	PHI (2004-now)	Citizens Bank Park (2004-now)	One Citizens Bank Way		Philadelphia	PA	US	19148	(215) 463-6000	phillies.com		logo_phi_79x76.jpg	
STL10	Busch Stadium III	2006-04-10	0000-00-00	1	80	38.6238	-90.1925	SLN (2006-now)	Busch Stadium III (2006-now); Busch Stadium	700 Clark Street		Saint Louis	MO	US	63102	(314) 345-9600	stlcardinals.com		logo_stl_79x76.jpg	
LBV01	The Ballpark at Disney's Wide World of Sports	2007-05-15	2007-05-17	0	3	NULL	NULL	TBA (2007-2007) [alt]	The Ballpark at Disney's Wide World of Sports			Lake Buena Vista	FL	US	32830					TBA played 3 games here as an alternate (neutral) site from 2007-05-15 until 2007-05-17: Marketing move by Major League Baseball
